[
 {
  "ZipCode": 90620,
  "City": "Buena Park"
 },
 {
  "ZipCode": 90621,
  "City": "Buena Park"
 },
 {
  "ZipCode": 90623,
  "City": "La Palma"
 },
 {
  "ZipCode": 90630,
  "City": "Cypress"
 },
 {
  "ZipCode": 90631,
  "City": "La Habra"
 },
 {
  "ZipCode": 90680,
  "City": "Stanton"
 },
 {
  "ZipCode": 90720,
  "City": "Los Alamitos"
 },
 {
  "ZipCode": 90740,
  "City": "Seal Beach"
 },
 {
  "ZipCode": 90742,
  "City": "Sunset Beach"
 },
 {
  "ZipCode": 90743,
  "City": "Surfside"
 },
 {
  "ZipCode": 92602,
  "City": "Irvine"
 },
 {
  "ZipCode": 92603,
  "City": "Irvine"
 },
 {
  "ZipCode": 92604,
  "City": "Irvine"
 },
 {
  "ZipCode": 92606,
  "City": "Irvine"
 },
 {
  "ZipCode": 92610,
  "City": "Foothill Ranch"
 },
 {
  "ZipCode": 92612,
  "City": "Irvine"
 },
 {
  "ZipCode": 92614,
  "City": "Irvine"
 },
 {
  "ZipCode": 92617,
  "City": "Irvine"
 },
 {
  "ZipCode": 92618,
  "City": "Irvine"
 },
 {
  "ZipCode": 92620,
  "City": "Irvine"
 },
 {
  "ZipCode": 92624,
  "City": "Capistrano Beach"
 },
 {
  "ZipCode": 92625,
  "City": "Corona Del Mar"
 },
 {
  "ZipCode": 92626,
  "City": "Costa Mesa"
 },
 {
  "ZipCode": 92627,
  "City": "Costa Mesa"
 },
 {
  "ZipCode": 92629,
  "City": "Dana Point"
 },
 {
  "ZipCode": 92630,
  "City": "Lake Forest"
 },
 {
  "ZipCode": 92637,
  "City": "Laguna Woods"
 },
 {
  "ZipCode": 92646,
  "City": "Huntington Beach"
 },
 {
  "ZipCode": 92647,
  "City": "Huntington Beach"
 },
 {
  "ZipCode": 92648,
  "City": "Huntington Beach"
 },
 {
  "ZipCode": 92649,
  "City": "Huntington Beach"
 },
 {
  "ZipCode": 92651,
  "City": "Laguna Beach"
 },
 {
  "ZipCode": 92653,
  "City": "Laguna Hills"
 },
 {
  "ZipCode": 92655,
  "City": "Midway City"
 },
 {
  "ZipCode": 92656,
  "City": "Aliso Viejo"
 },
 {
  "ZipCode": 92657,
  "City": "Newport Coast"
 },
 {
  "ZipCode": 92660,
  "City": "Newport Beach"
 },
 {
  "ZipCode": 92661,
  "City": "Newport Beach"
 },
 {
  "ZipCode": 92662,
  "City": "Newport Beach"
 },
 {
  "ZipCode": 92663,
  "City": "Newport Beach"
 },
 {
  "ZipCode": 92672,
  "City": "San Clemente"
 },
 {
  "ZipCode": 92673,
  "City": "San Clemente"
 },
 {
  "ZipCode": 92675,
  "City": "San Juan Capistrano"
 },
 {
  "ZipCode": 92676,
  "City": "Silverado"
 },
 {
  "ZipCode": 92677,
  "City": "Laguna Niguel"
 },
 {
  "ZipCode": 92679,
  "City": "Trabuco Canyon"
 },
 {
  "ZipCode": 92683,
  "City": "Westminster"
 },
 {
  "ZipCode": 92688,
  "City": "Rancho Santa Margarita"
 },
 {
  "ZipCode": 92691,
  "City": "Mission Viejo"
 },
 {
  "ZipCode": 92692,
  "City": "Mission Viejo"
 },
 {
  "ZipCode": 92694,
  "City": "Ladera Ranch"
 },
 {
  "ZipCode": 92697,
  "City": "Irvine"
 },
 {
  "ZipCode": 92701,
  "City": "Santa Ana"
 },
 {
  "ZipCode": 92703,
  "City": "Santa Ana"
 },
 {
  "ZipCode": 92704,
  "City": "Santa Ana"
 },
 {
  "ZipCode": 92705,
  "City": "Santa Ana"
 },
 {
  "ZipCode": 92706,
  "City": "Santa Ana"
 },
 {
  "ZipCode": 92707,
  "City": "Santa Ana"
 },
 {
  "ZipCode": 92708,
  "City": "Fountain Valley"
 },
 {
  "ZipCode": 92780,
  "City": "Tustin"
 },
 {
  "ZipCode": 92782,
  "City": "Tustin"
 },
 {
  "ZipCode": 92799,
  "City": "Santa Ana"
 },
 {
  "ZipCode": 92801,
  "City": "Anaheim"
 },
 {
  "ZipCode": 92802,
  "City": "Anaheim"
 },
 {
  "ZipCode": 92804,
  "City": "Anaheim"
 },
 {
  "ZipCode": 92805,
  "City": "Anaheim"
 },
 {
  "ZipCode": 92806,
  "City": "Anaheim"
 },
 {
  "ZipCode": 92807,
  "City": "Anaheim"
 },
 {
  "ZipCode": 92808,
  "City": "Anaheim"
 },
 {
  "ZipCode": 92809,
  "City": "Anaheim"
 },
 {
  "ZipCode": 92821,
  "City": "Brea"
 },
 {
  "ZipCode": 92823,
  "City": "Brea"
 },
 {
  "ZipCode": 92831,
  "City": "Fullerton"
 },
 {
  "ZipCode": 92832,
  "City": "Fullerton"
 },
 {
  "ZipCode": 92833,
  "City": "Fullerton"
 },
 {
  "ZipCode": 92835,
  "City": "Fullerton"
 },
 {
  "ZipCode": 92840,
  "City": "Garden Grove"
 },
 {
  "ZipCode": 92841,
  "City": "Garden Grove"
 },
 {
  "ZipCode": 92843,
  "City": "Garden Grove"
 },
 {
  "ZipCode": 92844,
  "City": "Garden Grove"
 },
 {
  "ZipCode": 92845,
  "City": "Garden Grove"
 },
 {
  "ZipCode": 92861,
  "City": "Villa Park"
 },
 {
  "ZipCode": 92862,
  "City": "Orange"
 },
 {
  "ZipCode": 92865,
  "City": "Orange"
 },
 {
  "ZipCode": 92866,
  "City": "Orange"
 },
 {
  "ZipCode": 92867,
  "City": "Orange"
 },
 {
  "ZipCode": 92868,
  "City": "Orange"
 },
 {
  "ZipCode": 92869,
  "City": "Orange"
 },
 {
  "ZipCode": 92870,
  "City": "Placentia"
 },
 {
  "ZipCode": 92886,
  "City": "Yorba Linda"
 },
 {
  "ZipCode": 92887,
  "City": "Yorba Linda"
 },
 {
  "ZipCode": 92899,
  "City": "Anaheim"
 },
 {
  "ZipCode": 90622,
  "City": "Buena Park"
 },
 {
  "ZipCode": 90624,
  "City": "Buena Park"
 },
 {
  "ZipCode": 90632,
  "City": "La Habra"
 },
 {
  "ZipCode": 90633,
  "City": "La Habra"
 },
 {
  "ZipCode": 90721,
  "City": "Los Alamitos"
 },
 {
  "ZipCode": 92605,
  "City": "Huntington Beach"
 },
 {
  "ZipCode": 92607,
  "City": "Laguna Niguel"
 },
 {
  "ZipCode": 92609,
  "City": "El Toro"
 },
 {
  "ZipCode": 92615,
  "City": "Huntington Beach"
 },
 {
  "ZipCode": 92616,
  "City": "Irvine"
 },
 {
  "ZipCode": 92619,
  "City": "Irvine"
 },
 {
  "ZipCode": 92623,
  "City": "Irvine"
 },
 {
  "ZipCode": 92628,
  "City": "Costa Mesa"
 },
 {
  "ZipCode": 92650,
  "City": "East Irvine"
 },
 {
  "ZipCode": 92652,
  "City": "Laguna Beach"
 },
 {
  "ZipCode": 92654,
  "City": "Laguna Hills"
 },
 {
  "ZipCode": 92658,
  "City": "Newport Beach"
 },
 {
  "ZipCode": 92659,
  "City": "Newport Beach"
 },
 {
  "ZipCode": 92674,
  "City": "San Clemente"
 },
 {
  "ZipCode": 92678,
  "City": "Trabuco Canyon"
 },
 {
  "ZipCode": 92684,
  "City": "Westminster"
 },
 {
  "ZipCode": 92685,
  "City": "Westminster"
 },
 {
  "ZipCode": 92690,
  "City": "Mission Viejo"
 },
 {
  "ZipCode": 92693,
  "City": "San Juan Capistrano"
 },
 {
  "ZipCode": 92702,
  "City": "Santa Ana"
 },
 {
  "ZipCode": 92711,
  "City": "Santa Ana"
 },
 {
  "ZipCode": 92712,
  "City": "Santa Ana"
 },
 {
  "ZipCode": 92728,
  "City": "Fountain Valley"
 },
 {
  "ZipCode": 92735,
  "City": "Santa Ana"
 },
 {
  "ZipCode": 92781,
  "City": "Tustin"
 },
 {
  "ZipCode": 92803,
  "City": "Anaheim"
 },
 {
  "ZipCode": 92811,
  "City": "Atwood"
 },
 {
  "ZipCode": 92812,
  "City": "Anaheim"
 },
 {
  "ZipCode": 92814,
  "City": "Anaheim"
 },
 {
  "ZipCode": 92815,
  "City": "Anaheim"
 },
 {
  "ZipCode": 92816,
  "City": "Anaheim"
 },
 {
  "ZipCode": 92817,
  "City": "Anaheim"
 },
 {
  "ZipCode": 92822,
  "City": "Brea"
 },
 {
  "ZipCode": 92825,
  "City": "Anaheim"
 },
 {
  "ZipCode": 92834,
  "City": "Fullerton"
 },
 {
  "ZipCode": 92836,
  "City": "Fullerton"
 },
 {
  "ZipCode": 92837,
  "City": "Fullerton"
 },
 {
  "ZipCode": 92838,
  "City": "Fullerton"
 },
 {
  "ZipCode": 92842,
  "City": "Garden Grove"
 },
 {
  "ZipCode": 92846,
  "City": "Garden Grove"
 },
 {
  "ZipCode": 92856,
  "City": "Orange"
 },
 {
  "ZipCode": 92857,
  "City": "Orange"
 },
 {
  "ZipCode": 92859,
  "City": "Orange"
 },
 {
  "ZipCode": 92863,
  "City": "Orange"
 },
 {
  "ZipCode": 92864,
  "City": "Orange"
 },
 {
  "ZipCode": 92871,
  "City": "Placentia"
 },
 {
  "ZipCode": 92885,
  "City": "Yorba Linda"
 },
 {
  "ZipCode": 92698,
  "City": "Aliso Viejo"
 },
 {
  "ZipCode": 92850,
  "City": "Anaheim"
 }
]